start=new Date('2022-06-15T00:00:00.000Z').valueOf();
sats=[{"SITE":"AFETR","TLE_LINE1":"1 52373U 22045AU  22165.91667824 -.00001283  00000-0 -47046-5 0  9994","ARG_OF_PERICENTER":"13.5643","GP_ID":"206146852","MEAN_MOTION_DDOT":"0.0000000000000","REV_AT_EPOCH":"979","MEAN_MOTION_DOT":"-0.00001283","EPHEMERIS_TYPE":"0","FILE":"3496166","CLASSIFICATION_TYPE":"U","LAUNCH_DATE":"2022-04-29","CENTER_NAME":"EARTH","BSTAR":"-0.00000470460000","RCS_SIZE":"LARGE","PERIAPSIS":"347.775","ECCENTRICITY":"0.00029770","MEAN_ELEMENT_THEORY":"SGP4","ELEMENT_SET_NO":"999","MEAN_MOTION":"15.73193623","MEAN_ANOMALY":"164.2809","NORAD_CAT_ID":"52373","TLE_LINE2":"2 52373  53.2132 208.4349 0002977  13.5643 164.2809 15.73193623  9790","TIME_SYSTEM":"UTC","OBJECT_ID":"2022-045AU","DECAY_DATE":null,"PERIOD":"91.534","SEMIMAJOR_AXIS":"6727.913","REF_FRAME":"TEME","OBJECT_TYPE":"PAYLOAD","COUNTRY_CODE":"US","INCLINATION":"53.2132","EPOCH":"2022-06-14T22:00:00.999936","RA_OF_ASC_NODE":"208.4349","APOAPSIS":"351.781","OBJECT_NAME":"STARLINK-3550"},{"ELEMENT_SET_NO":"999","MEAN_ELEMENT_THEORY":"SGP4","TIME_SYSTEM":"UTC","TLE_LINE2":"2 52374  53.2132 208.4350 0003125  13.2502 163.9858 15.73102994  9791","NORAD_CAT_ID":"52374","MEAN_MOTION":"15.73102994","MEAN_ANOMALY":"163.9858","DECAY_DATE":null,"OBJECT_ID":"2022-045AV","REF_FRAME":"TEME","SEMIMAJOR_AXIS":"6728.172","PERIOD":"91.539","COUNTRY_CODE":"US","OBJECT_TYPE":"PAYLOAD","INCLINATION":"53.2132","EPOCH":"2022-06-14T22:00:00.999936","OBJECT_NAME":"STARLINK-3762","APOAPSIS":"352.139","RA_OF_ASC_NODE":"208.4350","SITE":"AFETR","MEAN_MOTION_DDOT":"0.0000000000000","ARG_OF_PERICENTER":"13.2502","TLE_LINE1":"1 52374U 22045AV  22165.91667824  .00031136  00000-0  22634-3 0  9997","GP_ID":"206147348","MEAN_MOTION_DOT":"0.00031136","REV_AT_EPOCH":"979","EPHEMERIS_TYPE":"0","FILE":"3496166","LAUNCH_DATE":"2022-04-29","CENTER_NAME":"EARTH","CLASSIFICATION_TYPE":"U","BSTAR":"0.00022634000000","PERIAPSIS":"347.934","RCS_SIZE":"LARGE","ECCENTRICITY":"0.00031250"},{"REF_FRAME":"TEME","SEMIMAJOR_AXIS":"6728.083","PERIOD":"91.537","DECAY_DATE":null,"OBJECT_ID":"2022-045AW","TIME_SYSTEM":"UTC","TLE_LINE2":"2 52375  53.2134 208.4367 0002998  14.4204 161.5757 15.73134257  9790","NORAD_CAT_ID":"52375","MEAN_MOTION":"15.73134257","MEAN_ANOMALY":"161.5757","ELEMENT_SET_NO":"999","MEAN_ELEMENT_THEORY":"SGP4","OBJECT_NAME":"STARLINK-3785","APOAPSIS":"351.965","RA_OF_ASC_NODE":"208.4367","EPOCH":"2022-06-14T22:00:00.999936","INCLINATION":"53.2134","COUNTRY_CODE":"US","OBJECT_TYPE":"PAYLOAD","FILE":"3496166","REV_AT_EPOCH":"979","MEAN_MOTION_DOT":"0.00068398","EPHEMERIS_TYPE":"0","MEAN_MOTION_DDOT":"0.0000000000000","TLE_LINE1":"1 52375U 22045AW  22165.91667824  .00068398  00000-0  48909-3 0  9991","ARG_OF_PERICENTER":"14.4204","GP_ID":"206146846","SITE":"AFETR","ECCENTRICITY":"0.00029980","PERIAPSIS":"347.931","RCS_SIZE":"LARGE","BSTAR":"0.00048909000000","CENTER_NAME":"EARTH","LAUNCH_DATE":"2022-04-29","CLASSIFICATION_TYPE":"U"},{"INCLINATION":"53.2132","OBJECT_TYPE":"PAYLOAD","COUNTRY_CODE":"US","OBJECT_NAME":"STARLINK-3767","RA_OF_ASC_NODE":"208.4315","APOAPSIS":"351.921","EPOCH":"2022-06-14T22:00:00.999936","NORAD_CAT_ID":"52376","TIME_SYSTEM":"UTC","TLE_LINE2":"2 52376  53.2132 208.4315 0002957  17.1403 161.8464 15.73140016  9796","MEAN_ANOMALY":"161.8464","MEAN_MOTION":"15.73140016","ELEMENT_SET_NO":"999","MEAN_ELEMENT_THEORY":"SGP4","SEMIMAJOR_AXIS":"6728.066","REF_FRAME":"TEME","PERIOD":"91.537","OBJECT_ID":"2022-045AX","DECAY_DATE":null,"BSTAR":"0.00046180000000","CLASSIFICATION_TYPE":"U","CENTER_NAME":"EARTH","LAUNCH_DATE":"2022-04-29","ECCENTRICITY":"0.00029570","PERIAPSIS":"347.942","RCS_SIZE":"LARGE","MEAN_MOTION_DDOT":"0.0000000000000","GP_ID":"206146889","TLE_LINE1":"1 52376U 22045AX  22165.91667824  .00064532  00000-0  46180-3 0  9997","ARG_OF_PERICENTER":"17.1403","SITE":"AFETR","FILE":"3496169","EPHEMERIS_TYPE":"0","MEAN_MOTION_DOT":"0.00064532","REV_AT_EPOCH":"979"},{"COUNTRY_CODE":"US","OBJECT_TYPE":"PAYLOAD","INCLINATION":"53.2132","EPOCH":"2022-06-14T22:00:00.999936","APOAPSIS":"352.093","RA_OF_ASC_NODE":"208.4330","OBJECT_NAME":"STARLINK-3805","MEAN_ELEMENT_THEORY":"SGP4","ELEMENT_SET_NO":"999","MEAN_MOTION":"15.73099817","MEAN_ANOMALY":"164.6775","TIME_SYSTEM":"UTC","TLE_LINE2":"2 52377  53.2132 208.4330 0003042  13.7462 164.6775 15.73099817  9784","NORAD_CAT_ID":"52377","DECAY_DATE":null,"OBJECT_ID":"2022-045AY","PERIOD":"91.539","REF_FRAME":"TEME","SEMIMAJOR_AXIS":"6728.181","CENTER_NAME":"EARTH","LAUNCH_DATE":"2022-04-29","CLASSIFICATION_TYPE":"U","BSTAR":"0.00030605000000","RCS_SIZE":"LARGE","PERIAPSIS":"347.999","ECCENTRICITY":"0.00030420","SITE":"AFETR","TLE_LINE1":"1 52377U 22045AY  22165.91667824  .00042371  00000-0  30605-3 0  9990","ARG_OF_PERICENTER":"13.7462","GP_ID":"206146867","MEAN_MOTION_DDOT":"0.0000000000000","REV_AT_EPOCH":"978","MEAN_MOTION_DOT":"0.00042371","EPHEMERIS_TYPE":"0","FILE":"3496167"},{"EPOCH":"2022-06-14T22:00:00.999936","RA_OF_ASC_NODE":"208.4292","APOAPSIS":"351.986","OBJECT_NAME":"STARLINK-3806","OBJECT_TYPE":"PAYLOAD","COUNTRY_CODE":"US","INCLINATION":"53.2134","OBJECT_ID":"2022-045AZ","DECAY_DATE":null,"PERIOD":"91.537","SEMIMAJOR_AXIS":"6728.077","REF_FRAME":"TEME","MEAN_ELEMENT_THEORY":"SGP4","ELEMENT_SET_NO":"999","MEAN_ANOMALY":"164.3706","MEAN_MOTION":"15.73136087","NORAD_CAT_ID":"52378","TIME_SYSTEM":"UTC","TLE_LINE2":"2 52378  53.2134 208.4292 0003037  15.8045 164.3706 15.73136087  9791","RCS_SIZE":"LARGE","PERIAPSIS":"347.899","ECCENTRICITY":"0.00030370","CLASSIFICATION_TYPE":"U","CENTER_NAME":"EARTH","LAUNCH_DATE":"2022-04-29","BSTAR":"0.00048453000000","EPHEMERIS_TYPE":"0","MEAN_MOTION_DOT":"0.00067755","REV_AT_EPOCH":"979","FILE":"3496167","SITE":"AFETR","GP_ID":"206147366","TLE_LINE1":"1 52378U 22045AZ  22165.91667824  .00067755  00000-0  48453-3 0  9994","ARG_OF_PERICENTER":"15.8045","MEAN_MOTION_DDOT":"0.0000000000000"},{"OBJECT_ID":"2022-045BA","DECAY_DATE":null,"PERIOD":"91.538","SEMIMAJOR_AXIS":"6728.127","REF_FRAME":"TEME","MEAN_ELEMENT_THEORY":"SGP4","ELEMENT_SET_NO":"999","MEAN_ANOMALY":"171.3850","MEAN_MOTION":"15.73118634","NORAD_CAT_ID":"52379","TIME_SYSTEM":"UTC","TLE_LINE2":"2 52379  53.2134 208.4310 0002620   8.2026 171.3850 15.73118634  1300","EPOCH":"2022-06-14T22:00:00.999936","RA_OF_ASC_NODE":"208.4310","APOAPSIS":"351.755","OBJECT_NAME":"STARLINK-3800","OBJECT_TYPE":"PAYLOAD","COUNTRY_CODE":"US","INCLINATION":"53.2134","MEAN_MOTION_DOT":"0.00068567","REV_AT_EPOCH":"130","EPHEMERIS_TYPE":"0","FILE":"3496199","SITE":"AFETR","ARG_OF_PERICENTER":"8.2026","TLE_LINE1":"1 52379U 22045BA  22165.91667824  .00068567  00000-0  49063-3 0  9995","GP_ID":"206172394","MEAN_MOTION_DDOT":"0.0000000000000","RCS_SIZE":"LARGE","PERIAPSIS":"348.229","ECCENTRICITY":"0.00026200","CLASSIFICATION_TYPE":"U","CENTER_NAME":"EARTH","LAUNCH_DATE":"2022-04-29","BSTAR":"0.00049063000000"},{"REV_AT_EPOCH":"130","MEAN_MOTION_DOT":"0.00068526","EPHEMERIS_TYPE":"0","FILE":"3496199","SITE":"AFETR","MEAN_MOTION_DDOT":"0.0000000000000","ARG_OF_PERICENTER":"16.7573","TLE_LINE1":"1 52380U 22045BB  22165.91667824  .00068526  00000-0  49013-3 0  9997","GP_ID":"206172538","PERIAPSIS":"348.501","RCS_SIZE":"LARGE","ECCENTRICITY":"0.00021690","CENTER_NAME":"EARTH","LAUNCH_DATE":"2022-04-29","CLASSIFICATION_TYPE":"U","BSTAR":"0.00049013000000","DECAY_DATE":null,"OBJECT_ID":"2022-045BB","REF_FRAME":"TEME","SEMIMAJOR_AXIS":"6728.095","PERIOD":"91.537","ELEMENT_SET_NO":"999","MEAN_ELEMENT_THEORY":"SGP4","TIME_SYSTEM":"UTC","TLE_LINE2":"2 52380  53.2136 208.4243 0002169  16.7573 165.1988 15.73129799  1305","NORAD_CAT_ID":"52380","MEAN_ANOMALY":"165.1988","MEAN_MOTION":"15.73129799","EPOCH":"2022-06-14T22:00:00.999936","OBJECT_NAME":"STARLINK-3793","APOAPSIS":"351.420","RA_OF_ASC_NODE":"208.4243","COUNTRY_CODE":"US","OBJECT_TYPE":"PAYLOAD","INCLINATION":"53.2136"},{"COUNTRY_CODE":"US","OBJECT_TYPE":"PAYLOAD","INCLINATION":"53.2131","EPOCH":"2022-06-14T22:00:00.999936","APOAPSIS":"352.332","RA_OF_ASC_NODE":"208.4277","OBJECT_NAME":"STARLINK-3803","MEAN_ELEMENT_THEORY":"SGP4","ELEMENT_SET_NO":"999","MEAN_ANOMALY":"172.4143","MEAN_MOTION":"15.73148099","TIME_SYSTEM":"UTC","TLE_LINE2":"2 52381  53.2131 208.4277 0003603   8.3914 172.4143 15.73148099  9797","NORAD_CAT_ID":"52381","DECAY_DATE":null,"OBJECT_ID":"2022-045BC","PERIOD":"91.536","REF_FRAME":"TEME","SEMIMAJOR_AXIS":"6728.043","CENTER_NAME":"EARTH","LAUNCH_DATE":"2022-04-29","CLASSIFICATION_TYPE":"U","BSTAR":"0.00047085000000","RCS_SIZE":"LARGE","PERIAPSIS":"347.484","ECCENTRICITY":"0.00036030","SITE":"AFETR","TLE_LINE1":"1 52381U 22045BC  22165.91667824  .00065849  00000-0  47085-3 0  9990","GP_ID":"206146853","ARG_OF_PERICENTER":"8.3914","MEAN_MOTION_DDOT":"0.0000000000000","MEAN_MOTION_DOT":"0.00065849","REV_AT_EPOCH":"979","EPHEMERIS_TYPE":"0","FILE":"3496167"},{"LAUNCH_DATE":"2022-04-29","CENTER_NAME":"EARTH","CLASSIFICATION_TYPE":"U","BSTAR":"0.00049076000000","PERIAPSIS":"347.942","RCS_SIZE":"LARGE","ECCENTRICITY":"0.00029930","SITE":"AFETR","MEAN_MOTION_DDOT":"0.0000000000000","TLE_LINE1":"1 52382U 22045BD  22165.91667824  .00068627  00000-0  49076-3 0  9990","GP_ID":"206146861","ARG_OF_PERICENTER":"10.7573","MEAN_MOTION_DOT":"0.00068627","EPHEMERIS_TYPE":"0","REV_AT_EPOCH":"979","FILE":"3496167","COUNTRY_CODE":"US","OBJECT_TYPE":"PAYLOAD","INCLINATION":"53.2134","EPOCH":"2022-06-14T22:00:00.999936","OBJECT_NAME":"STARLINK-3799","APOAPSIS":"351.969","RA_OF_ASC_NODE":"208.4251","ELEMENT_SET_NO":"999","MEAN_ELEMENT_THEORY":"SGP4","TLE_LINE2":"2 52382  53.2134 208.4251 0002993  10.7573 170.6010 15.73131451  9799","TIME_SYSTEM":"UTC","NORAD_CAT_ID":"52382","MEAN_ANOMALY":"170.6010","MEAN_MOTION":"15.73131451","DECAY_DATE":null,"OBJECT_ID":"2022-045BD","REF_FRAME":"TEME","SEMIMAJOR_AXIS":"6728.091","PERIOD":"91.537"}];
